#dP2024 11 16  0  0  0.00000000      97 __u+U IGS20 FIT  IAC
## 2340 518400.00000000   900.00000000 60630 0.0000000000000
+  116   C06C07C08C09C10C11C12C13C14C16C19C20C21C22C23C24C25
+        C26C27C28C29C30C32C33C34C35C36C37C38C39C40C41C42C43
+        C44C45E02E03E04E05E06E07E08E09E10E11E12E13E14E15E18
+        E19E21E24E25E26E27E29E30E31E33E34E36G02G03G04G05G06
+        G07G08G09G10G11G12G13G14G15G16G17G18G20G21G22G23G24
+        G25G26G27G28G29G30G31G32J02J03J04R01R03R04R05R07R08
+        R09R11R12R14R15R16R17R18R19R20R21R22R24R26  0  0  0
++         7  7  8  7  7  6  7  7  6  7  5  5  6  5  5  5  6
++         5  5  5  5  6  5  5  6  5  5  5  6  9  6  6  5  5
++         6  5  4  4  4  4  4  4  3  4  4  4  4  4  4  4  4
++         4  4  4  4  4  4  4  4  4  4  4  4  3  3  3  3  3
++         3  3  3  3  4  3  3  3  3  3  3  3  4  3  3  3  3
++         3  4  3  3  3  3  3  3 11 11 11  7  6  6  6  6  6
++         7  6  6  6  6  7  6  7  8  7  6  6  6  7  0  0  0
%c M  cc GPS ccc cccc cccc cccc cccc ccccc ccccc ccccc ccccc
%c cc cc ccc ccc cccc cccc cccc cccc ccccc ccccc ccccc ccccc
%f  1.2500000  1.025000000  0.00000000000  0.000000000000000
%f  0.0000000  0.000000000  0.00000000000  0.000000000000000
%i    0    0    0    0      0      0      0      0         0
%i    0    0    0    0      0      0      0      0         0
/* INFORMATION & ANALYSIS CENTER (IAC)            FINAL DATA
/* S/V CLOCKS ARE ALIGNED TO GNSS TIME                      
/* G:C1WC2W R:C1PC2P E:C1XC5X C:C2IC6I J:C1CC2S             
/* PCV:IGS20_2317 OL/AL:FES2004  NONE     YN ORB:CoN CLK:CoN
*  2024 11 16 16 15  0.00000000
PC06   -950.055749  30368.335000 -29013.594548    442.932302
PC07 -15269.209470  29919.609275  25492.997400   -199.149024
PC08 -12130.641492  40503.229903   1246.795369   -797.048953
PC09   5171.787558  33571.835300 -24048.850652   -640.206443
PC10  -7073.216594  30003.932001  28948.568374   -285.813026
PC11 -26221.828462  -7992.272896   5278.130145    245.533761
PC12 -17786.799386 -17199.135596 -12855.562017   -247.835384
PC13  -7500.684425  41385.459737  -4549.173897     88.241404
PC14 -21695.578244   2014.972838  17408.230474   -435.577870
PC16  -4300.225047  27693.339826 -31078.005526     98.141258
PC19  24013.177742 -10103.754577 -10013.858115   -965.897031
PC20  17225.481956   4817.643386 -21426.001519   -908.071392
PC21    893.761857 -18428.640258  20947.951360   -914.291348
PC22  17554.154011 -20218.711482   7884.419990    181.251511
PC23  -8483.880166  21447.396989 -15719.681174   -887.886036
PC24 -14262.750594 -17753.436226 -16131.237641    764.067082
PC25 -16068.124422   2902.168376 -22646.501481    562.684706
PC26  -4790.807541 -27469.221373   -424.042079   -378.116365
PC27   9018.962176  18270.921561  19051.406179    397.141021
PC28  -8680.872275  13739.913911  22694.968319    309.206228
PC29  25151.100110    103.773626 -12091.360665    363.042476
PC30  23802.661416  13262.487258   5979.175794     28.736271
PC32   -855.340815  18485.101649 -20878.673990   -805.125762
PC33 -23934.929618  10149.251959  10122.117672   -950.500008
PC34 -24663.010191 -12352.840663  -4297.840806    565.668500
PC35   8913.618889 -13813.480484 -22556.332018    206.572159
PC36  16061.796959  -2991.924439  22637.550284    222.362691
PC37   3996.436724  27635.193851    148.701887   -893.299129
PC38 -14854.843184  38680.446699   8352.165968    191.624315
PC39  -6845.768231  25289.134041 -32928.059783    -10.341731
PC40 -22253.847694  23698.986231  26717.021006   -102.911006
PC41 -18127.285901  20035.851873  -6906.994405   -889.675638
PC42 -15834.266774  -6490.234354  22072.384345   -516.553064
PC43 -25545.031714   -804.693746  11219.823331     92.401188
PC44  -9550.013768 -18028.547043 -19061.583671    654.193374
PC45   8808.562170 -20966.440045  16144.550879   -168.610906
PE02  20263.129113 -11263.989390  18387.536236    175.246608
PE03  28863.055903  -4666.566586   4635.738838   -153.883680
PE04 -15348.978868  14986.554531 -20396.401427    -83.881310
PE05  25072.626184   8146.970526 -13463.736592   4802.299837
PE06  -4489.252936  17048.492132 -23797.815769    -48.152953
PE07  -6251.583195 -16340.553671  23871.708127   -153.189052
PE08  16137.723847 -14606.247451  20055.144395   -368.916308
PE09   6173.286455  16220.471772 -23986.072203   -665.781513
PE10   2960.697239  24361.764641  16561.321829   -670.311213
PE11  11149.711592  26405.427497   7377.311337    745.006702
PE12  -4761.293812  19122.126214  22088.461662  -1298.600313
PE13 -10782.256867 -26396.670681  -7936.309404    -26.878470
PE14 -10095.216857 -16225.416668 -19770.552475    383.362718
PE15   5266.684903 -18552.519460 -22440.944918   -139.501632
PE18  26886.566358   8164.429196  11192.679638    779.905395
PE19 -29272.095452   3300.025012  -2924.451619    943.926642
PE21 -14195.708660  -9165.291780 -24305.793010   -628.697776
PE24   -538.219865  24931.409399  15948.909194  -1103.153645
PE25  13925.995660   9641.748807  24278.177118     11.293613
PE26 -20388.260088 -18247.992873  11297.495728   -209.810070
PE27    415.007772 -24864.409128 -16046.073627   -505.735955
PE29 -25314.534762  -8052.875176  13062.031476    -46.185084
PE30  14604.268178 -25695.014656   1463.744387   -931.945010
PE31 -14594.483456  25709.095034  -1565.171880    -43.167817
PE33 -18138.295063   -499.920905  23395.276265     16.154935
PE34  17971.313262     46.934492 -23517.896466   -146.307755
PE36  20199.766224  18701.534473 -10867.978825   -312.023411
PG02 -21265.227036 -11006.628381  12343.570302   -313.190451
PG03 -15492.463224    251.278893  21388.751784    601.468842
PG04 -26206.505897  -1005.635147   4701.718367    480.506700
PG05   8455.285387  15801.228387 -19760.139537   -193.185812
PG06   1162.966176  20495.257058  16862.442461   -119.332700
PG07 -15707.414158   3667.411967 -20641.747685    -19.801957
PG08 -20835.483853  -7566.344412 -15072.308393    415.159517
PG09 -25273.671697   6967.745235  -4562.581031    446.414023
PG10  10068.972099 -24372.300689    563.721198   -198.158897
PG11  11750.624948  23343.808374   4957.537414   -750.311756
PG12  14216.080345   5186.835998  21539.730944   -552.470110
PG13  13040.576889  13385.355789 -19199.385459    686.274439
PG14 -12926.130761  22813.063325  -3309.501372    541.063354
PG15  21598.428343   5376.832819 -15127.379765    228.507985
PG16  -3494.712051 -19653.837805 -17638.959382   -126.833557
PG17 -14821.371693  13384.372744  18021.422267    556.312121
PG18  14013.993530  -5859.345898 -21777.687945   -660.388585
PG20   2407.601357  24139.322817 -10901.917311    368.686096
PG21 -20927.391239 -16080.602050   6689.755598     97.311714
PG22  -8936.027518  24680.355885   5419.449338    -79.856096
PG23  15811.834523 -16966.114675 -12694.330259    364.508623
PG24  21273.053513  13049.895941   9189.834754   -479.894692
PG25  17218.526667  -9824.320115  17198.034467    498.959403
PG26   2573.090025 -25250.570953  -7291.706056     24.077570
PG27 -10486.829987 -13342.662457 -20829.405057    -34.699223
PG28    209.599607 -19663.673563  17837.910391   -480.811267
PG29  26046.967849  -3916.395700  -3953.856056   -563.332067
PG30  -7520.039989  15001.917280 -20385.560804   -280.676889
PG31  -8505.523290 -23097.191958   9237.041959   -221.655211
PG32  10996.999526 -14909.966874  19175.156159   -572.870857
PJ02 -27560.553931  31579.210274    317.232197      0.370153
PJ03 -25841.466555  22904.935791  29386.497517     -6.824292
PJ04 -34189.015005  23765.550451  -1628.729713     21.646009
PR01 -22765.987527  11107.930936   2971.534693    104.618723
PR03   1298.705509  11323.997351 -22783.816938    111.490523
PR04  16633.584898   1515.465022 -19245.667081    264.252933
PR05  23262.250236  -8909.758571  -5410.199880    140.784890
PR07  -1876.758839 -11089.113783  22925.869631     95.106500
PR08 -16907.999408  -1293.192150  19128.541138     -6.253378
PR09   5207.492735 -22880.084011  10121.567249    220.899611
PR11  -8799.523567 -13908.938805 -19486.503501      6.793171
PR12 -10769.106785   7513.713568 -21850.795302     47.308683
PR14   2685.949229  24380.361208   6977.356139     27.238329
PR15   9330.927147  12225.735800  20363.318668     74.056909
PR16  10633.277049  -7375.998681  21993.771340     30.847047
PR17  12903.797713  16393.709775  14726.307373    140.407596
PR18  21416.220968  13790.820918   -802.320836    172.175701
PR19  19936.974918   6084.793509 -14701.330979   -298.678323
PR20   4755.784818  -9387.158275 -23220.545773   -121.999059
PR21 -11943.083397 -16328.448305 -15507.818443   -151.820826
PR22 -21423.650970 -13693.749793   2127.911334    -12.119863
PR24  -4104.857467  10309.353306  22993.555532    -80.371734
PR26 -15602.974258  -2356.495776  20052.383713   -133.481826
EOF
